[
    {
        "Altitude(m)": 604969.0892246364,
        "Argument of Periapsis(deg)": 0.0,
        "Eccentricity": 0.0,
        "Inclination(deg)": 60.0,
        "Latitude(deg)": -0.09273439550993412,
        "Longitude(deg)": -110.0224724533076,
        "Mean Anomaly(deg)": 0.0,
        "RAAN(deg)": 350.0,
        "Satellite Name": "Test1 1540",
        "Satellite Number": 1540,
        "Semi-Major Axis(m)": 6980739.136638005,
        "Time(s)": 0
    },
    {
        "Altitude(m)": 604900.0282053348,
        "Argument of Periapsis(deg)": 0.00010418945913296404,
        "Eccentricity": 0.0,
        "Inclination(deg)": 60.0,
        "Latitude(deg)": 0.44769133006489237,
        "Longitude(deg)": -109.75434908718161,
        "Mean Anomaly(deg)": 0.620106145461853,
        "RAAN(deg)": 349.99957995086027,
        "Satellite Name": "Test1 1540",
        "Satellite Number": 1540,
        "Semi-Major Axis(m)": 6980739.136638005,
        "Time(s)": 10
    }
]